ONEWEB-0053             
1 45157U 20008AC  26177.13380049 -.00003093  00000+0 -88967-2 0  9999
2 45157  87.8821  34.5015 0001895  69.1183 291.0148 13.10392605309082
ONEWEB-0054             
1 45158U 20008AD  26177.16945060  .00002008  00000+0  57164-2 0  9991
2 45158  87.8838  34.4783 0001888  84.3363 275.7980 13.10360871309200
ONEWEB-0056             
1 45159U 20008AE  26177.14045088  .00000249  00000+0  67684-3 0  9995
2 45159  87.8831  34.4772 0002118  87.8398 272.2972 13.10376372309357
ONEWEB-0057             
1 45160U 20008AF  26177.15769172 -.00001082  00000+0 -31356-2 0  9999
2 45160  87.8827  34.4865 0002009  70.0094 290.1249 13.10378328309521
ONEWEB-0058             
1 45161U 20008AG  26177.14450559  .00000365  00000+0  10090-2 0  9998
2 45161  87.8818  34.4943 0001653  89.7380 270.3937 13.10370617309592
ONEWEB-0059             
1 45162U 20008AH  26177.14072326 -.00001968  00000+0 -56752-2 0  9998
2 45162  87.8822  34.4938 0001885  78.3004 281.8335 13.10380560309492
ONEWEB-0062             
1 45163U 20008AJ  26177.16421376  .00006832  00000+0  19531-1 0  9990
2 45163  87.8831  34.4777 0001639  89.4422 270.6894 13.10334701309366
ONEWEB-0065             
1 45164U 20008AK  26176.96909487  .00004198  00000+0  11988-1 0  9993
2 45164  87.8832  34.5246 0002050  80.2468 279.8891 13.10345631309033
ONEWEB-0066             
1 45424U 20020A   26177.07341736  .00000132  00000+0  33579-3 0  9992
2 45424  87.8881  19.3019 0001653  85.3684 274.7633 13.11418569303842
ONEWEB-0067             
1 45425U 20020B   26177.26383914  .00000012  00000+0 -60338-6 0  9992
2 45425  87.8901  19.1873 0001878  81.9491 278.1850 13.11422675303920
ONEWEB-0080             
1 45426U 20020C   26177.26344899 -.00000006  00000+0 -52781-4 0  9997
2 45426  87.8892  19.2611 0001756  97.2911 262.8416 13.11413905303893
ONEWEB-0090             
1 45427U 20020D   26177.06338075 -.00000280  00000+0 -82701-3 0  9993
2 45427  87.8893  19.3054 0001836  89.5126 270.6213 13.11418043303832
ONEWEB-0061             
1 45428U 20020E   26177.09532381  .00000545  00000+0  15018-2 0  9991
2 45428  87.8889  19.2835 0001772  87.7169 272.4162 13.11415883303797
ONEWEB-0081             
1 45429U 20020F   26177.07681038  .00000297  00000+0  80311-3 0  9997
2 45429  87.8887  19.2973 0001744  81.6669 278.4657 13.11418438303903
ONEWEB-0069             
1 45430U 20020G   26177.07863424 -.00009273  00000+0 -26206-1 0  9996
2 45430  87.8883  19.2992 0001433  93.8757 266.2535 13.11467644303835
ONEWEB-0031             
1 45431U 20020H   26177.26669665 -.00000128  00000+0 -39582-3 0  9992
2 45431  87.8877  19.2669 0001825  93.5699 266.5638 13.11414450303842
ONEWEB-0027             
1 45432U 20020J   26177.22162980  .00000073  00000+0  15525-3 0  9995
2 45432  87.9134   4.0676 0002175 101.2410 258.8966 13.17652768307548
ONEWEB-0064             
1 45433U 20020K   26177.26500605 -.00000021  00000+0 -94780-4 0  9996
2 45433  87.8880  19.2592 0001886  92.1011 268.0333 13.11415389303877
ONEWEB-0018             
1 45434U 20020L   26177.06818128 -.00000218  00000+0 -65033-3 0  9993
2 45434  87.8886  19.2981 0001404  87.1039 273.0250 13.11420325303797
ONEWEB-0083             
1 45435U 20020M   26176.98199466 -.00000423  00000+0 -12294-2 0  9999
2 45435  87.8892  19.3095 0001763  89.6554 270.4776 13.11419010303826
ONEWEB-0095             
1 45436U 20020N   26177.27869339 -.00000529  00000+0 -15273-2 0  9993
2 45436  87.8888  19.2590 0002530  87.5979 272.5438 13.11415616303862
ONEWEB-0092             
1 45437U 20020P   26177.08019242  .00000405  00000+0  11080-2 0  9996
2 45437  87.8890  19.2898 0002055  82.2896 277.8466 13.11413240303959
ONEWEB-0085             
1 45438U 20020Q   26176.98172011 -.00000399  00000+0 -11623-2 0  9996
2 45438  87.8885  19.3156 0001844  87.9849 272.1490 13.11418085303820
ONEWEB-0096             
1 45439U 20020R   26176.98353930 -.00000346  00000+0 -10131-2 0  9993
2 45439  87.8888  19.3119 0001963  88.4247 271.7106 13.11416634303819
ONEWEB-0037             
1 45440U 20020S   26177.08979001  .00000670  00000+0  18414-2 0  9990
2 45440  87.8902  19.2633 0001890  85.8867 274.2477 13.11913363303861
ONEWEB-0042             
1 45441U 20020T   26177.27842998 -.00000491  00000+0 -14226-2 0  9996
2 45441  87.8888  19.2494 0001815  84.5632 275.5703 13.11416692303851
ONEWEB-0098             
1 45442U 20020U   26177.27432312 -.00000412  00000+0 -11982-2 0  9991
2 45442  87.8889  19.2593 0001817  89.7149 270.4188 13.11416228303839
ONEWEB-0055             
1 45443U 20020V   26177.25301305  .00000430  00000+0  11780-2 0  9991
2 45443  87.8889  19.2624 0001809  90.0857 270.0478 13.11416845303807
ONEWEB-0093             
1 45444U 20020W   26177.08034186  .00000436  00000+0  11930-2 0  9996
2 45444  87.8892  19.2899 0001729  74.0838 286.0481 13.11417812303848
ONEWEB-0029             
1 45445U 20020X   26177.26005467  .00000120  00000+0  30272-3 0  9998
2 45445  87.8878  19.2624 0001654  81.3882 278.7433 13.11413696303847
