OBJECT_NAME,OBJECT_ID,EPOCH,MEAN_MOTION,ECCENTRICITY,INCLINATION,RA_OF_ASC_NODE,ARG_OF_PERICENTER,MEAN_ANOMALY,EPHEMERIS_TYPE,CLASSIFICATION_TYPE,NORAD_CAT_ID,ELEMENT_SET_NO,REV_AT_EPOCH,BSTAR,MEAN_MOTION_DOT,MEAN_MOTION_DDOT
ONEWEB-0053,2020-008AC,2026-06-26T03:12:40.362336,13.10392605,.00018952,87.8821,34.5015,69.1183,291.0148,0,U,45157,999,30908,-.88966936E-2,-.3093E-4,0
ONEWEB-0054,2020-008AD,2026-06-26T04:04:00.531840,13.10360871,.00018882,87.8838,34.4783,84.3363,275.7980,0,U,45158,999,30920,.57163772E-2,.2008E-4,0
ONEWEB-0056,2020-008AE,2026-06-26T03:22:14.956032,13.10376372,.00021184,87.8831,34.4772,87.8398,272.2972,0,U,45159,999,30935,.67683926E-3,.249E-5,0
ONEWEB-0057,2020-008AF,2026-06-26T03:47:04.564608,13.10378328,.00020098,87.8827,34.4865,70.0094,290.1249,0,U,45160,999,30952,-.31355646E-2,-.1082E-4,0
ONEWEB-0058,2020-008AG,2026-06-26T03:28:05.282976,13.10370617,.00016536,87.8818,34.4943,89.7380,270.3937,0,U,45161,999,30959,.10090411E-2,.365E-5,0
ONEWEB-0059,2020-008AH,2026-06-26T03:22:38.489664,13.10380560,.0001885,87.8822,34.4938,78.3004,281.8335,0,U,45162,999,30949,-.56751921E-2,-.1968E-4,0
ONEWEB-0062,2020-008AJ,2026-06-26T03:56:28.068864,13.10334701,.00016391,87.8831,34.4777,89.4422,270.6894,0,U,45163,999,30936,.19531443E-1,.6832E-4,0
ONEWEB-0065,2020-008AK,2026-06-25T23:15:29.796768,13.10345631,.00020509,87.8832,34.5246,80.2468,279.8891,0,U,45164,999,30903,.11987796E-1,.4198E-4,0
ONEWEB-0066,2020-020A,2026-06-26T01:45:43.259904,13.11418569,.00016531,87.8881,19.3019,85.3684,274.7633,0,U,45424,999,30384,.33578777E-3,.132E-5,0
ONEWEB-0067,2020-020B,2026-06-26T06:19:55.701696,13.11422675,.00018787,87.8901,19.1873,81.9491,278.1850,0,U,45425,999,30392,-.603383E-6,.12E-6,0
ONEWEB-0080,2020-020C,2026-06-26T06:19:21.992736,13.11413905,.00017566,87.8892,19.2611,97.2911,262.8416,0,U,45426,999,30389,-.52780743E-4,-.6E-7,0
ONEWEB-0090,2020-020D,2026-06-26T01:31:16.096800,13.11418043,.00018362,87.8893,19.3054,89.5126,270.6213,0,U,45427,999,30383,-.82700644E-3,-.28E-5,0
ONEWEB-0061,2020-020E,2026-06-26T02:17:15.977184,13.11415883,.00017722,87.8889,19.2835,87.7169,272.4162,0,U,45428,999,30379,.1501844E-2,.545E-5,0
ONEWEB-0081,2020-020F,2026-06-26T01:50:36.416832,13.11418438,.00017446,87.8887,19.2973,81.6669,278.4657,0,U,45429,999,30390,.80311257E-3,.297E-5,0
ONEWEB-0069,2020-020G,2026-06-26T01:53:13.998336,13.11467644,.00014331,87.8883,19.2992,93.8757,266.2535,0,U,45430,999,30383,-.26205633E-1,-.9273E-4,0
ONEWEB-0031,2020-020H,2026-06-26T06:24:02.590560,13.11414450,.00018254,87.8877,19.2669,93.5699,266.5638,0,U,45431,999,30384,-.39581679E-3,-.128E-5,0
ONEWEB-0027,2020-020J,2026-06-26T05:19:08.814720,13.17652768,.00021758,87.9134,4.0676,101.2410,258.8966,0,U,45432,999,30754,.1552483E-3,.73E-6,0
ONEWEB-0064,2020-020K,2026-06-26T06:21:36.522720,13.11415389,.00018862,87.8880,19.2592,92.1011,268.0333,0,U,45433,999,30387,-.94779551E-4,-.21E-6,0
ONEWEB-0018,2020-020L,2026-06-26T01:38:10.862592,13.11420325,.00014044,87.8886,19.2981,87.1039,273.0250,0,U,45434,999,30379,-.65033492E-3,-.218E-5,0
ONEWEB-0083,2020-020M,2026-06-25T23:34:04.338624,13.11419010,.00017636,87.8892,19.3095,89.6554,270.4776,0,U,45435,999,30382,-.12293515E-2,-.423E-5,0
ONEWEB-0095,2020-020N,2026-06-26T06:41:19.108896,13.11415616,.000253,87.8888,19.2590,87.5979,272.5438,0,U,45436,999,30386,-.15272852E-2,-.529E-5,0
ONEWEB-0092,2020-020P,2026-06-26T01:55:28.625088,13.11413240,.00020556,87.8890,19.2898,82.2896,277.8466,0,U,45437,999,30395,.11080351E-2,.405E-5,0
ONEWEB-0085,2020-020Q,2026-06-25T23:33:40.617504,13.11418085,.0001844,87.8885,19.3156,87.9849,272.1490,0,U,45438,999,30382,-.11623492E-2,-.399E-5,0
ONEWEB-0096,2020-020R,2026-06-25T23:36:17.795520,13.11416634,.00019637,87.8888,19.3119,88.4247,271.7106,0,U,45439,999,30381,-.10130895E-2,-.346E-5,0
ONEWEB-0037,2020-020S,2026-06-26T02:09:17.856864,13.11913363,.000189,87.8902,19.2633,85.8867,274.2477,0,U,45440,999,30386,.18414252E-2,.67E-5,0
ONEWEB-0042,2020-020T,2026-06-26T06:40:56.350272,13.11416692,.00018159,87.8888,19.2494,84.5632,275.5703,0,U,45441,999,30385,-.14226221E-2,-.491E-5,0
ONEWEB-0098,2020-020U,2026-06-26T06:35:01.517568,13.11416228,.00018179,87.8889,19.2593,89.7149,270.4188,0,U,45442,999,30383,-.11981772E-2,-.412E-5,0
ONEWEB-0055,2020-020V,2026-06-26T06:04:20.327520,13.11416845,.00018092,87.8889,19.2624,90.0857,270.0478,0,U,45443,999,30380,.11780421E-2,.43E-5,0
ONEWEB-0093,2020-020W,2026-06-26T01:55:41.536704,13.11417812,.00017296,87.8892,19.2899,74.0838,286.0481,0,U,45444,999,30384,.11930143E-2,.436E-5,0
ONEWEB-0029,2020-020X,2026-06-26T06:14:28.723488,13.11413696,.00016542,87.8878,19.2624,81.3882,278.7433,0,U,45445,999,30384,.30271747E-3,.12E-5,0
